{
    "links": {
        "self": "http://www.neowsapp.com/rest/v1/neo/3556970?api_key=iIulBulltgU6a56xZRHN4H3l9WmuAYTsLGpBGhQ2"
    },
    "id": "3556970",
    "neo_reference_id": "3556970",
    "name": "(2011 CV4)",
    "designation": "2011 CV4",
    "nasa_jpl_url": "http://ssd.jpl.nasa.gov/sbdb.cgi?sstr=3556970",
    "absolute_magnitude_h": 25.9,
    "estimated_diameter": {
        "kilometers": {
            "estimated_diameter_min": 0.0175612318,
            "estimated_diameter_max": 0.0392681082
        },
        "meters": {
            "estimated_diameter_min": 17.561231848,
            "estimated_diameter_max": 39.2681081809
        },
        "miles": {
            "estimated_diameter_min": 0.0109120402,
            "estimated_diameter_max": 0.0244000636
        },
        "feet": {
            "estimated_diameter_min": 57.6155918963,
            "estimated_diameter_max": 128.8323800441
        }
    },
    "is_potentially_hazardous_asteroid": false,
    "close_approach_data": [
        {
            "close_approach_date": "2011-02-09",
            "close_approach_date_full": "2011-Feb-09 05:30",
            "epoch_date_close_approach": 1297229400000,
            "relative_velocity": {
                "kilometers_per_second": "10.1278541058",
                "kilometers_per_hour": "36460.2747807083",
                "miles_per_hour": "22654.9968491573"
            },
            "miss_distance": {
                "astronomical": "0.0283431283",
                "lunar": "11.0254769087",
                "kilometers": "4240071.622816721",
                "miles": "2634658.3356879098"
            },
            "orbiting_body": "Earth"
        }
    ],
    "orbital_data": {
        "orbit_id": "7",
        "orbit_determination_date": "2017-04-06 08:54:36",
        "first_observation_date": "2011-02-05",
        "last_observation_date": "2011-02-08",
        "data_arc_in_days": 3,
        "observations_used": 27,
        "orbit_uncertainty": "8",
        "minimum_orbit_intersection": ".0283207",
        "jupiter_tisserand_invariant": "3.896",
        "epoch_osculation": "2455599.5",
        "eccentricity": ".4715510490028614",
        "semi_major_axis": "1.811601622058311",
        "inclination": "10.44975082029582",
        "ascending_node_longitude": "133.6587391863882",
        "orbital_period": "890.6200710213576",
        "perihelion_distance": ".9573389768014294",
        "perihelion_argument": "38.43731613052233",
        "aphelion_distance": "2.665864267315193",
        "perihelion_time": "2455627.647068394119",
        "mean_anomaly": "348.6225957042913",
        "mean_motion": ".4042127633471748",
        "equinox": "J2000",
        "orbit_class": {
            "orbit_class_type": "APO",
            "orbit_class_description": "Near-Earth asteroid orbits which cross the Earth’s orbit similar to that of 1862 Apollo",
            "orbit_class_range": "a (semi-major axis) > 1.0 AU; q (perihelion) < 1.017 AU"
        }
    },
    "is_sentry_object": false
}